<?xml version="1.0" encoding="UTF-8"?>
<osm version="0.6" generator="CGImap 0.6.0 (22515 thorn-02.openstreetmap.org)" copyright="OpenStreetMap and contributors" attribution="http://www.openstreetmap.org/copyright" license="http://opendatacommons.org/licenses/odbl/1-0/">
 <relation id="3287346" visible="true" version="29" changeset="54644432" timestamp="2017-12-15T07:09:56Z" user="Joey_He" uid="7235161">
  <member type="node" ref="244080443" role="label"/>
  <member type="way" ref="309004326" role="outer"/>
  <member type="way" ref="243200512" role="outer"/>
  <member type="way" ref="308996792" role="outer"/>
  <member type="way" ref="243200520" role="outer"/>
  <member type="way" ref="258135267" role="outer"/>
  <member type="way" ref="308994530" role="outer"/>
  <member type="way" ref="243183695" role="outer"/>
  <member type="way" ref="308993744" role="outer"/>
  <member type="way" ref="258135263" role="outer"/>
  <member type="way" ref="380519915" role="outer"/>
  <member type="way" ref="380538775" role="outer"/>
  <member type="way" ref="380538744" role="outer"/>
  <member type="way" ref="258145972" role="outer"/>
  <member type="way" ref="363428860" role="outer"/>
  <member type="way" ref="380359164" role="outer"/>
  <member type="way" ref="380359157" role="outer"/>
  <member type="way" ref="243183697" role="outer"/>
  <member type="way" ref="380359162" role="outer"/>
  <member type="way" ref="380359168" role="outer"/>
  <member type="way" ref="380359158" role="outer"/>
  <member type="way" ref="243183698" role="outer"/>
  <member type="way" ref="243183699" role="outer"/>
  <member type="way" ref="380359165" role="outer"/>
  <member type="way" ref="380359159" role="outer"/>
  <member type="way" ref="380403157" role="outer"/>
  <member type="way" ref="380405952" role="outer"/>
  <member type="way" ref="243180059" role="outer"/>
  <member type="way" ref="238169323" role="outer"/>
  <member type="way" ref="238169326" role="outer"/>
  <member type="way" ref="238169316" role="outer"/>
  <member type="way" ref="243180068" role="outer"/>
  <member type="way" ref="241130106" role="outer"/>
  <member type="way" ref="237836717" role="outer"/>
  <member type="way" ref="232643055" role="outer"/>
  <member type="way" ref="243180071" role="outer"/>
  <member type="way" ref="502084464" role="outer"/>
  <member type="way" ref="502084478" role="outer"/>
  <member type="way" ref="258135276" role="outer"/>
  <member type="way" ref="243200508" role="outer"/>
  <member type="relation" ref="3987393" role="subarea"/>
  <member type="relation" ref="3287616" role="subarea"/>
  <member type="relation" ref="3287617" role="subarea"/>
  <member type="relation" ref="3287618" role="subarea"/>
  <member type="relation" ref="3287615" role="subarea"/>
  <member type="relation" ref="3287345" role="subarea"/>
  <member type="relation" ref="3287298" role="subarea"/>
  <member type="relation" ref="3287299" role="subarea"/>
  <member type="relation" ref="3987394" role="subarea"/>
  <member type="relation" ref="3987437" role="subarea"/>
  <member type="relation" ref="3987435" role="subarea"/>
  <tag k="admin_level" v="5"/>
  <tag k="alt_name" v="广州"/>
  <tag k="alt_name:en" v="Guangzhou City"/>
  <tag k="boundary" v="administrative"/>
  <tag k="division_code" v="440100"/>
  <tag k="is_in:iso_3166_2" v="CN-44"/>
  <tag k="name" v="广州市 Guangzhou (Canton)"/>
  <tag k="name:da" v="Guangzhou"/>
  <tag k="name:de" v="Guangzhou"/>
  <tag k="name:en" v="Guangzhou"/>
  <tag k="name:eo" v="Kantono"/>
  <tag k="name:es" v="Cantón"/>
  <tag k="name:fr" v="Canton"/>
  <tag k="name:he" v="גואנגג'ואו"/>
  <tag k="name:io" v="Guangzhou"/>
  <tag k="name:ja" v="広州市"/>
  <tag k="name:ka" v="გუანჯოუ"/>
  <tag k="name:kn" v="ಕ್ವಾಂಗ್ಕ್ಸೌ"/>
  <tag k="name:lt" v="Guangdžou"/>
  <tag k="name:pl" v="Kanton"/>
  <tag k="name:pt" v="Cantão"/>
  <tag k="name:ru" v="Гуанчжоу"/>
  <tag k="name:sr" v="Гуангџоу"/>
  <tag k="name:tt" v="Kanton"/>
  <tag k="name:uk" v="Гуанчжоу"/>
  <tag k="name:vi" v="Quảng Châu"/>
  <tag k="name:zh" v="广州市"/>
  <tag k="name:zh_pinyin" v="Guăngzhōu Shì"/>
  <tag k="old_name:en" v="Canton;Kwangchow"/>
  <tag k="old_name:io" v="Kanton"/>
  <tag k="place" v="city"/>
  <tag k="type" v="boundary"/>
  <tag k="wikidata" v="Q16572"/>
  <tag k="wikipedia" v="en:Guangzhou"/>
 </relation>
</osm>
